OBJECT_NAME,OBJECT_ID,EPOCH,MEAN_MOTION,ECCENTRICITY,INCLINATION,RA_OF_ASC_NODE,ARG_OF_PERICENTER,MEAN_ANOMALY,EPHEMERIS_TYPE,CLASSIFICATION_TYPE,NORAD_CAT_ID,ELEMENT_SET_NO,REV_AT_EPOCH,BSTAR,MEAN_MOTION_DOT,MEAN_MOTION_DDOT
STARLINK-37758,2026-115J,2026-06-14T06:00:02.000160,15.68525985,.00014162,97.2839,182.5610,93.2213,207.5347,0,U,69219,999,422,-.2576867E-1,-.2536066E-1,0
STARLINK-37201,2026-115K,2026-06-14T06:00:02.000160,15.68499347,.0001763,97.2838,182.5597,104.3508,191.4152,0,U,69220,999,422,-.25914546E-1,-.2546501E-1,0
STARLINK-37728,2026-115L,2026-06-14T06:00:02.000160,15.66850571,.00013659,97.2838,182.5596,103.6013,189.9239,0,U,69221,999,422,-.28524427E-1,-.2609496E-1,0
STARLINK-37760,2026-115M,2026-06-14T06:00:02.000160,15.70199659,.00013389,97.2841,182.5637,99.3389,206.8199,0,U,69222,999,422,-.24986074E-1,-.2622678E-1,0
STARLINK-37759,2026-115N,2026-06-14T06:00:02.000160,15.56301261,.00013407,97.2840,182.5076,91.2335,75.3136,0,U,69223,999,422,-.11982369E-1,-.765486E-2,0
STARLINK-37725,2026-115P,2026-06-14T06:00:02.000160,15.57881844,.00017557,97.2838,182.5135,81.1130,98.6807,0,U,69224,999,422,-.38332877E-1,-.2486319E-1,0
STARLINK-37770,2026-115Q,2026-06-14T06:00:02.000160,15.71162197,.000124,97.2838,182.5705,97.6078,227.6606,0,U,69225,999,422,-.23775992E-1,-.2601877E-1,0
STARLINK-37736,2026-115R,2026-06-14T06:00:02.000160,15.69031681,.00011916,97.2836,182.5656,103.3763,207.8195,0,U,69226,999,422,-.25969915E-1,-.2599768E-1,0
STARLINK-37737,2026-115S,2026-06-14T06:00:02.000160,15.71719485,.00012972,97.2837,182.5787,100.5123,243.2381,0,U,69227,999,424,-.23320738E-1,-.26116E-1,0
STARLINK-37618,2026-115T,2026-06-14T06:00:02.000160,15.55779647,.00018985,97.2843,182.5099,71.0673,101.0329,0,U,69228,999,422,-.41479365E-1,-.2486672E-1,0
STARLINK-37679,2026-115U,2026-06-14T06:00:02.000160,15.56564049,.00017701,97.2838,182.5143,79.3578,103.6643,0,U,69229,999,422,-.40644071E-1,-.2505808E-1,0
STARLINK-37746,2026-115V,2026-06-14T06:00:02.000160,15.54602934,.00013865,97.2840,182.4985,67.5617,78.0663,0,U,69230,999,422,-.43621732E-1,-.2500879E-1,0
STARLINK-37557,2026-115W,2026-06-14T06:00:02.000160,15.49181071,.00016398,97.2840,182.4412,109.0407,267.1959,0,U,69231,999,422,.33380572E-3,.18101E-3,0
STARLINK-37745,2026-115X,2026-06-14T06:00:02.000160,15.71621901,.00009649,97.2838,182.5975,86.3158,299.9391,0,U,69232,999,422,-.93815788E-2,-.107877E-1,0
STARLINK-37739,2026-115Y,2026-06-14T06:00:02.000160,15.55312413,.00015869,97.2841,182.4918,67.1366,62.4229,0,U,69233,999,422,-.43328767E-1,-.2596083E-1,0
STARLINK-37755,2026-115Z,2026-06-14T05:01:46.276032,15.75239544,.00009943,97.2830,182.4898,92.8796,267.2583,0,U,69234,999,421,.89064217E-3,.135125E-2,0
TJS-24,2026-116A,2026-06-14T02:29:21.791616,1.00267596,.00003785,0.0127,354.1247,70.1363,325.7648,0,U,69235,999,19,0,0,0
CZ-7A R/B,2026-116B,2026-05-26T21:56:07.164384,2.38711174,.72516577,19.5460,149.3523,178.3837,187.0911,0,U,69236,999,2,.75663565E-4,.49818E-3,-.368698E-6
STARLINK-37665,2026-117A,2026-06-14T05:06:45.183744,15.82030545,.00009326,53.1584,258.5510,81.9783,278.1347,0,U,69238,999,250,.70945329E-3,.149609E-2,0
STARLINK-37558,2026-117B,2026-06-14T05:05:22.961184,15.82045139,.00008703,53.1581,258.5444,47.4008,312.7089,0,U,69239,999,250,.99079284E-3,.210862E-2,0
STARLINK-37680,2026-117C,2026-06-14T06:34:17.128704,15.82018746,.00014847,53.1588,258.2187,55.3502,304.7661,0,U,69240,999,251,.80120794E-3,.169347E-2,0
STARLINK-37742,2026-117D,2026-06-14T06:31:42.985920,15.82023033,.00015724,53.1589,258.2072,51.5514,308.5650,0,U,69241,999,251,.77339494E-3,.163363E-2,0
STARLINK-37718,2026-117E,2026-06-13T19:52:59.089152,15.82123535,.00013106,53.1590,260.4172,38.7834,321.3284,0,U,69242,999,244,.11804005E-2,.253529E-2,0
STARLINK-37735,2026-117F,2026-06-14T06:29:47.130432,15.82034696,.00014019,53.1589,258.1973,44.9553,315.1583,0,U,69243,999,251,.76637363E-3,.161934E-2,0
STARLINK-37757,2026-117G,2026-06-14T06:26:20.160960,15.82042754,.00012781,53.1588,258.1814,48.9025,311.2108,0,U,69244,999,251,.86352543E-3,.18307E-2,0
STARLINK-37767,2026-117H,2026-06-14T06:20:11.734080,15.82013233,.00009708,53.1586,258.1514,64.7813,295.3311,0,U,69245,999,251,.86649583E-3,.183457E-2,0
STARLINK-35759,2026-117J,2026-06-14T06:19:12.568224,15.82034819,.00010853,53.1588,258.1475,51.9592,308.1529,0,U,69246,999,251,.76335824E-3,.161282E-2,0
STARLINK-37238,2026-117K,2026-06-14T06:12:48.830400,15.82033903,.00012804,53.1590,258.1161,59.1970,300.9179,0,U,69247,999,251,.79296752E-3,.167683E-2,0
STARLINK-37412,2026-117L,2026-06-14T06:07:57.630432,15.82038925,.00010946,53.1592,258.0938,90.3290,269.7859,0,U,69248,999,251,.72913383E-3,.153916E-2,0
STARLINK-37398,2026-117M,2026-06-14T06:11:11.927616,15.80929633,.000131,53.1596,258.1085,74.4272,285.6896,0,U,69249,999,251,.93917121E-3,.189274E-2,0
