{"updated_at":"2026-06-14T12:04:27.394061Z","count":200,"data":[{"NORAD_CAT_ID":"69238","OBJECT_NAME":"STARLINK-37665","OBJECT_ID":"2026-117A","EPOCH":"2026-06-14T05:06:45.183744","TLE_LINE1":"1 69238U 26117A   26165.21302296  .00149609  00000-0  70945-3 0  9997","TLE_LINE2":"2 69238  53.1584 258.5510 0000933  81.9783 278.1347 15.82030545  2505"},{"NORAD_CAT_ID":"69239","OBJECT_NAME":"STARLINK-37558","OBJECT_ID":"2026-117B","EPOCH":"2026-06-14T05:05:22.961184","TLE_LINE1":"1 69239U 26117B   26165.21207131  .00210862  00000-0  99079-3 0  9999","TLE_LINE2":"2 69239  53.1581 258.5444 0000870  47.4008 312.7089 15.82045139  2509"},{"NORAD_CAT_ID":"69240","OBJECT_NAME":"STARLINK-37680","OBJECT_ID":"2026-117C","EPOCH":"2026-06-14T06:34:17.128704","TLE_LINE1":"1 69240U 26117C   26165.27380936  .00169347  00000-0  80121-3 0  9991","TLE_LINE2":"2 69240  53.1588 258.2187 0001485  55.3502 304.7661 15.82018746  2511"},{"NORAD_CAT_ID":"69241","OBJECT_NAME":"STARLINK-37742","OBJECT_ID":"2026-117D","EPOCH":"2026-06-14T06:31:42.985920","TLE_LINE1":"1 69241U 26117D   26165.27202530  .00163363  00000-0  77339-3 0  9994","TLE_LINE2":"2 69241  53.1589 258.2072 0001572  51.5514 308.5650 15.82023033  2519"},{"NORAD_CAT_ID":"69242","OBJECT_NAME":"STARLINK-37718","OBJECT_ID":"2026-117E","EPOCH":"2026-06-13T19:52:59.089152","TLE_LINE1":"1 69242U 26117E   26164.82846168  .00253529  00000-0  11804-2 0  9994","TLE_LINE2":"2 69242  53.1590 260.4172 0001311  38.7834 321.3284 15.82123535  2447"},{"NORAD_CAT_ID":"69243","OBJECT_NAME":"STARLINK-37735","OBJECT_ID":"2026-117F","EPOCH":"2026-06-14T06:29:47.130432","TLE_LINE1":"1 69243U 26117F   26165.27068438  .00161934  00000-0  76637-3 0  9995","TLE_LINE2":"2 69243  53.1589 258.1973 0001402  44.9553 315.1583 15.82034696  2517"},{"NORAD_CAT_ID":"69244","OBJECT_NAME":"STARLINK-37757","OBJECT_ID":"2026-117G","EPOCH":"2026-06-14T06:26:20.160960","TLE_LINE1":"1 69244U 26117G   26165.26828890  .00183070  00000-0  86353-3 0  9992","TLE_LINE2":"2 69244  53.1588 258.1814 0001278  48.9025 311.2108 15.82042754  2514"},{"NORAD_CAT_ID":"69245","OBJECT_NAME":"STARLINK-37767","OBJECT_ID":"2026-117H","EPOCH":"2026-06-14T06:20:11.734080","TLE_LINE1":"1 69245U 26117H   26165.26402470  .00183457  00000-0  86650-3 0  9994","TLE_LINE2":"2 69245  53.1586 258.1514 0000971  64.7813 295.3311 15.82013233  2518"},{"NORAD_CAT_ID":"69246","OBJECT_NAME":"STARLINK-35759","OBJECT_ID":"2026-117J","EPOCH":"2026-06-14T06:19:12.568224","TLE_LINE1":"1 69246U 26117J   26165.26333991  .00161282  00000-0  76336-3 0  9998","TLE_LINE2":"2 69246  53.1588 258.1475 0001085  51.9592 308.1529 15.82034819  2513"},{"NORAD_CAT_ID":"69247","OBJECT_NAME":"STARLINK-37238","OBJECT_ID":"2026-117K","EPOCH":"2026-06-14T06:12:48.830400","TLE_LINE1":"1 69247U 26117K   26165.25889850  .00167683  00000-0  79297-3 0  9998","TLE_LINE2":"2 69247  53.1590 258.1161 0001280  59.1970 300.9179 15.82033903  2510"},{"NORAD_CAT_ID":"69248","OBJECT_NAME":"STARLINK-37412","OBJECT_ID":"2026-117L","EPOCH":"2026-06-14T06:07:57.630432","TLE_LINE1":"1 69248U 26117L   26165.25552813  .00153916  00000-0  72913-3 0  9997","TLE_LINE2":"2 69248  53.1592 258.0938 0001095  90.3290 269.7859 15.82038925  2516"},{"NORAD_CAT_ID":"69249","OBJECT_NAME":"STARLINK-37398","OBJECT_ID":"2026-117M","EPOCH":"2026-06-14T06:11:11.927616","TLE_LINE1":"1 69249U 26117M   26165.25777694  .00189274  00000-0  93917-3 0  9997","TLE_LINE2":"2 69249  53.1596 258.1085 0001310  74.4272 285.6896 15.80929633  2519"},{"NORAD_CAT_ID":"69219","OBJECT_NAME":"STARLINK-37758","OBJECT_ID":"2026-115J","EPOCH":"2026-06-14T06:00:02.000160","TLE_LINE1":"1 69219U 26115J   26165.25002315 -.02536066  00000-0 -25769-1 0  9990","TLE_LINE2":"2 69219  97.2839 182.5610 0001416  93.2213 207.5347 15.68525985  4222"},{"NORAD_CAT_ID":"69220","OBJECT_NAME":"STARLINK-37201","OBJECT_ID":"2026-115K","EPOCH":"2026-06-14T06:00:02.000160","TLE_LINE1":"1 69220U 26115K   26165.25002315 -.02546501  00000-0 -25915-1 0  9990","TLE_LINE2":"2 69220  97.2838 182.5597 0001763 104.3508 191.4152 15.68499347  4220"},{"NORAD_CAT_ID":"69221","OBJECT_NAME":"STARLINK-37728","OBJECT_ID":"2026-115L","EPOCH":"2026-06-14T06:00:02.000160","TLE_LINE1":"1 69221U 26115L   26165.25002315 -.02609496  00000-0 -28524-1 0  9993","TLE_LINE2":"2 69221  97.2838 182.5596 0001366 103.6013 189.9239 15.66850571  4228"},{"NORAD_CAT_ID":"69222","OBJECT_NAME":"STARLINK-37760","OBJECT_ID":"2026-115M","EPOCH":"2026-06-14T06:00:02.000160","TLE_LINE1":"1 69222U 26115M   26165.25002315 -.02622678  00000-0 -24986-1 0  9999","TLE_LINE2":"2 69222  97.2841 182.5637 0001339  99.3389 206.8199 15.70199659  4228"},{"NORAD_CAT_ID":"69223","OBJECT_NAME":"STARLINK-37759","OBJECT_ID":"2026-115N","EPOCH":"2026-06-14T06:00:02.000160","TLE_LINE1":"1 69223U 26115N   26165.25002315 -.00765486  00000-0 -11982-1 0  9995","TLE_LINE2":"2 69223  97.2840 182.5076 0001341  91.2335  75.3136 15.56301261  4228"},{"NORAD_CAT_ID":"69224","OBJECT_NAME":"STARLINK-37725","OBJECT_ID":"2026-115P","EPOCH":"2026-06-14T06:00:02.000160","TLE_LINE1":"1 69224U 26115P   26165.25002315 -.02486319  00000-0 -38333-1 0  9992","TLE_LINE2":"2 69224  97.2838 182.5135 0001756  81.1130  98.6807 15.57881844  4227"},{"NORAD_CAT_ID":"69225","OBJECT_NAME":"STARLINK-37770","OBJECT_ID":"2026-115Q","EPOCH":"2026-06-14T06:00:02.000160","TLE_LINE1":"1 69225U 26115Q   26165.25002315 -.02601877  00000-0 -23776-1 0  9996","TLE_LINE2":"2 69225  97.2838 182.5705 0001240  97.6078 227.6606 15.71162197  4222"},{"NORAD_CAT_ID":"69226","OBJECT_NAME":"STARLINK-37736","OBJECT_ID":"2026-115R","EPOCH":"2026-06-14T06:00:02.000160","TLE_LINE1":"1 69226U 26115R   26165.25002315 -.02599768  00000-0 -25970-1 0  9990","TLE_LINE2":"2 69226  97.2836 182.5656 0001192 103.3763 207.8195 15.69031681  4221"},{"NORAD_CAT_ID":"69227","OBJECT_NAME":"STARLINK-37737","OBJECT_ID":"2026-115S","EPOCH":"2026-06-14T06:00:02.000160","TLE_LINE1":"1 69227U 26115S   26165.25002315 -.02611600  00000-0 -23321-1 0  9999","TLE_LINE2":"2 69227  97.2837 182.5787 0001297 100.5123 243.2381 15.71719485  4244"},{"NORAD_CAT_ID":"69228","OBJECT_NAME":"STARLINK-37618","OBJECT_ID":"2026-115T","EPOCH":"2026-06-14T06:00:02.000160","TLE_LINE1":"1 69228U 26115T   26165.25002315 -.02486672  00000-0 -41479-1 0  9993","TLE_LINE2":"2 69228  97.2843 182.5099 0001899  71.0673 101.0329 15.55779647  4227"},{"NORAD_CAT_ID":"69229","OBJECT_NAME":"STARLINK-37679","OBJECT_ID":"2026-115U","EPOCH":"2026-06-14T06:00:02.000160","TLE_LINE1":"1 69229U 26115U   26165.25002315 -.02505808  00000-0 -40644-1 0  9990","TLE_LINE2":"2 69229  97.2838 182.5143 0001770  79.3578 103.6643 15.56564049  4221"},{"NORAD_CAT_ID":"69230","OBJECT_NAME":"STARLINK-37746","OBJECT_ID":"2026-115V","EPOCH":"2026-06-14T06:00:02.000160","TLE_LINE1":"1 69230U 26115V   26165.25002315 -.02500879  00000-0 -43622-1 0  9994","TLE_LINE2":"2 69230  97.2840 182.4985 0001387  67.5617  78.0663 15.54602934  4227"},{"NORAD_CAT_ID":"69231","OBJECT_NAME":"STARLINK-37557","OBJECT_ID":"2026-115W","EPOCH":"2026-06-14T06:00:02.000160","TLE_LINE1":"1 69231U 26115W   26165.25002315  .00018101  00000-0  33381-3 0  9996","TLE_LINE2":"2 69231  97.2840 182.4412 0001640 109.0407 267.1959 15.49181071  4221"},{"NORAD_CAT_ID":"69232","OBJECT_NAME":"STARLINK-37745","OBJECT_ID":"2026-115X","EPOCH":"2026-06-14T06:00:02.000160","TLE_LINE1":"1 69232U 26115X   26165.25002315 -.01078770  00000-0 -93816-2 0  9996","TLE_LINE2":"2 69232  97.2838 182.5975 0000965  86.3158 299.9391 15.71621901  4222"},{"NORAD_CAT_ID":"69233","OBJECT_NAME":"STARLINK-37739","OBJECT_ID":"2026-115Y","EPOCH":"2026-06-14T06:00:02.000160","TLE_LINE1":"1 69233U 26115Y   26165.25002315 -.02596083  00000-0 -43329-1 0  9993","TLE_LINE2":"2 69233  97.2841 182.4918 0001587  67.1366  62.4229 15.55312413  4222"},{"NORAD_CAT_ID":"69234","OBJECT_NAME":"STARLINK-37755","OBJECT_ID":"2026-115Z","EPOCH":"2026-06-14T05:01:46.276032","TLE_LINE1":"1 69234U 26115Z   26165.20956338  .00135125  00000-0  89064-3 0  9992","TLE_LINE2":"2 69234  97.2830 182.4898 0000994  92.8796 267.2583 15.75239544  4213"},{"NORAD_CAT_ID":"69235","OBJECT_NAME":"TJS-24","OBJECT_ID":"2026-116A","EPOCH":"2026-06-14T02:29:21.791616","TLE_LINE1":"1 69235U 26116A   26165.10372444  .00000000  00000-0  00000-0 0  9996","TLE_LINE2":"2 69235   0.0127 354.1247 0000379  70.1363 325.7648  1.00267596   193"},{"NORAD_CAT_ID":"69236","OBJECT_NAME":"CZ-7A R/B","OBJECT_ID":"2026-116B","EPOCH":"2026-05-26T21:56:07.164384","TLE_LINE1":"1 69236U 26116B   26146.91397181  .00049818 -36870-6  75664-4 0  9993","TLE_LINE2":"2 69236  19.5460 149.3523 7251658 178.3837 187.0911  2.38711174    24"}]}